[{"OBJECT_NAME":"STARLINK-35498","OBJECT_ID":"2025-293Q","EPOCH":"2026-03-09T10:46:11.636256","MEAN_MOTION":14.98325601,"ECCENTRICITY":0.00029353,"INCLINATION":70.0006,"RA_OF_ASC_NODE":94.9889,"ARG_OF_PERICENTER":261.5962,"MEAN_ANOMALY":98.4864,"EPHEMERIS_TYPE":0,"CLASSIFICATION_TYPE":"U","NORAD_CAT_ID":67017,"ELEMENT_SET_NO":999,"REV_AT_EPOCH":1485,"BSTAR":-0.0010476463,"MEAN_MOTION_DOT":-0.00012569,"MEAN_MOTION_DDOT":0},{"OBJECT_NAME":"CZ-6A DEB","OBJECT_ID":"2024-140YL","EPOCH":"2026-03-09T14:34:10.973280","MEAN_MOTION":14.76070049,"ECCENTRICITY":0.0107737,"INCLINATION":88.9686,"RA_OF_ASC_NODE":278.8738,"ARG_OF_PERICENTER":195.8975,"MEAN_ANOMALY":163.8857,"EPHEMERIS_TYPE":0,"CLASSIFICATION_TYPE":"U","NORAD_CAT_ID":61419,"ELEMENT_SET_NO":999,"REV_AT_EPOCH":8106,"BSTAR":0.0016404,"MEAN_MOTION_DOT":0.00012469,"MEAN_MOTION_DDOT":0}]
